[
  {
    "ProviderName": "BRIGHTSIDE ACADEMY EARLY CARE & EDUCATIO",
    "AddressLine1": "915 N BROAD ST # 19",
    "City": "PHILADELPHIA",
    "State": "PA",
    "ZipCode": "19123",
    "ZipExtention": "1013",
    "Latitude": "39.970664",
    "Longitude": "-75.159515",
    "PhoneNumber": "4122015501"
  },
  {
    "ProviderName": "HEAD START - TENTH STREET CENTER",
    "AddressLine1": "1020 S 10TH ST",
    "City": "PHILADELPHIA",
    "State": "PA",
    "ZipCode": "19147",
    "ZipExtention": "3828",
    "Latitude": "39.93739",
    "Longitude": "-75.159881",
    "PhoneNumber": "2154719782"
  },
  {
    "ProviderName": "UNITED COMMUNITIES SOUTHWARK E S",
    "AddressLine1": "1835 S 9TH ST",
    "City": "PHILADELPHIA",
    "State": "PA",
    "ZipCode": "19148",
    "ZipExtention": "1661",
    "Latitude": "39.926046",
    "Longitude": "-75.160589",
    "PhoneNumber": "2154686111"
  },
  {
    "ProviderName": "PRECIOUS BABIES LRNG ACADEMY DAYCARE",
    "AddressLine1": "5810 OLD YORK RD",
    "City": "PHILADELPHIA",
    "State": "PA",
    "ZipCode": "19141",
    "ZipExtention": "2506",
    "Latitude": "40.04198",
    "Longitude": "-75.144505",
    "PhoneNumber": "2154244144"
  },
  {
    "ProviderName": "MONTGOMERY EARLY LEARNING CENTERS AT POINT BREEZE",
    "AddressLine1": "2140 FEDERAL ST",
    "City": "PHILADELPHIA",
    "State": "PA",
    "ZipCode": "19146",
    "ZipExtention": "",
    "Latitude": "39.937737",
    "Longitude": "-75.180087",
    "PhoneNumber": "4847042484"
  },
  {
    "ProviderName": "FRUITAGE OF THE BELLY CHILD CARE CENTER",
    "AddressLine1": "7179 N 19TH ST",
    "City": "PHILADELPHIA",
    "State": "PA",
    "ZipCode": "19126",
    "ZipExtention": "1509",
    "Latitude": "40.063765",
    "Longitude": "-75.147375",
    "PhoneNumber": "2152242226"
  },
  {
    "ProviderName": "MASTERY CHARTER MANN ELEMENTARY SCHOOL",
    "AddressLine1": "1835 N 54TH ST",
    "City": "PHILADELPHIA",
    "State": "PA",
    "ZipCode": "19131",
    "ZipExtention": "",
    "Latitude": "39.985567",
    "Longitude": "-75.231662",
    "PhoneNumber": "2156201345"
  },
  {
    "ProviderName": "OLNEY CHARTER HIGH SCHOOL",
    "AddressLine1": "100 W DUNCANNON AVE",
    "City": "PHILADELPHIA",
    "State": "PA",
    "ZipCode": "19120",
    "ZipExtention": "3410",
    "Latitude": "40.029097",
    "Longitude": "-75.122795",
    "PhoneNumber": "2154563014"
  },
  {
    "ProviderName": "THE GIVING TREE",
    "AddressLine1": "420 BAINBRIDGE ST",
    "City": "PHILADELPHIA",
    "State": "PA",
    "ZipCode": "19147",
    "ZipExtention": "1568",
    "Latitude": "39.940627",
    "Longitude": "-75.150377",
    "PhoneNumber": "2155749900"
  },
  {
    "ProviderName": "CHELTEN CHRISTIAN CRUSADE LITTLE PEOPLE SCH",
    "AddressLine1": "605 E CHELTEN AVE",
    "City": "PHILADELPHIA",
    "State": "PA",
    "ZipCode": "19144",
    "ZipExtention": "1204",
    "Latitude": "40.04333",
    "Longitude": "-75.167115",
    "PhoneNumber": "2158496614"
  },
  {
    "ProviderName": "LOIS LEARNING TREE",
    "AddressLine1": "422 S 52ND ST",
    "City": "PHILADELPHIA",
    "State": "PA",
    "ZipCode": "19143",
    "ZipExtention": "1533",
    "Latitude": "39.952857",
    "Longitude": "-75.226462",
    "PhoneNumber": "2157472563"
  },
  {
    "ProviderName": "DONNA HARRIS CONGO FAMILY CHILD CARE HOME",
    "AddressLine1": "4645 LOCUST ST",
    "City": "PHILADELPHIA",
    "State": "PA",
    "ZipCode": "19139",
    "ZipExtention": "4415",
    "Latitude": "39.95457",
    "Longitude": "-75.215339",
    "PhoneNumber": "2154722815"
  },
  {
    "ProviderName": "BERNADETTE WILSON-PARKER FCCH",
    "AddressLine1": "6144 NASSAU RD",
    "City": "PHILADELPHIA",
    "State": "PA",
    "ZipCode": "19151",
    "ZipExtention": "4505",
    "Latitude": "39.978998",
    "Longitude": "-75.245441",
    "PhoneNumber": "2159215269"
  },
  {
    "ProviderName": "APM CHILDREN SERVICES",
    "AddressLine1": "1116 E LUZERNE ST",
    "City": "PHILADELPHIA",
    "State": "PA",
    "ZipCode": "19124",
    "ZipExtention": "5208",
    "Latitude": "40.00808",
    "Longitude": "-75.106285",
    "PhoneNumber": "2672967353"
  },
  {
    "ProviderName": "LINCOLN DAY EDUCATIONAL CENTER",
    "AddressLine1": "1839 ELLSWORTH ST",
    "City": "PHILADELPHIA",
    "State": "PA",
    "ZipCode": "19146",
    "ZipExtention": "2945",
    "Latitude": "39.937869",
    "Longitude": "-75.174642",
    "PhoneNumber": "2157327333"
  },
  {
    "ProviderName": "BRIGHTSIDE ACADEMY INC",
    "AddressLine1": "5229 MARKET ST",
    "City": "PHILADELPHIA",
    "State": "PA",
    "ZipCode": "19139",
    "ZipExtention": "3418",
    "Latitude": "39.960219",
    "Longitude": "-75.225802",
    "PhoneNumber": "2154744430"
  },
  {
    "ProviderName": "ECS OST PROGRAM AT FINLETTER THOMAS K ELEMENTARY",
    "AddressLine1": "6100 N FRONT ST",
    "City": "PHILADELPHIA",
    "State": "PA",
    "ZipCode": "19120",
    "ZipExtention": "2024",
    "Latitude": "40.042945",
    "Longitude": "-75.11985",
    "PhoneNumber": "2154563160"
  },
  {
    "ProviderName": "NORTH STAR AT PAN AMERICAN",
    "AddressLine1": "2830 N AMERICAN ST",
    "City": "PHILADELPHIA",
    "State": "PA",
    "ZipCode": "19133",
    "ZipExtention": "3517",
    "Latitude": "39.994578",
    "Longitude": "-75.135686",
    "PhoneNumber": "2157638870"
  },
  {
    "ProviderName": "MT AIRY CHRISTIAN DAY SCHOOL",
    "AddressLine1": "6401 OGONTZ AVE",
    "City": "PHILADELPHIA",
    "State": "PA",
    "ZipCode": "19126",
    "ZipExtention": "",
    "Latitude": "40.051742",
    "Longitude": "-75.150043",
    "PhoneNumber": "2152762990"
  },
  {
    "ProviderName": "PRINCIPALS DEMONSTRATION PREPARATORY ACADEMY",
    "AddressLine1": "7500 SHERWOOD RD",
    "City": "PHILADELPHIA",
    "State": "PA",
    "ZipCode": "19151",
    "ZipExtention": "2114",
    "Latitude": "39.977658",
    "Longitude": "-75.267258",
    "PhoneNumber": "6104009966"
  },
  {
    "ProviderName": "BRIGHT HORIZONS CHILD CARE AND LEARNING CENTER",
    "AddressLine1": "401 N 21ST ST",
    "City": "PHILADELPHIA",
    "State": "PA",
    "ZipCode": "19130",
    "ZipExtention": "3833",
    "Latitude": "39.961891",
    "Longitude": "-75.173196",
    "PhoneNumber": "2155636447"
  },
  {
    "ProviderName": "LATIA JONES",
    "AddressLine1": "5235 HAWTHORNE ST",
    "City": "PHILADELPHIA",
    "State": "PA",
    "ZipCode": "19124",
    "ZipExtention": "1344",
    "Latitude": "40.020667",
    "Longitude": "-75.074595",
    "PhoneNumber": "2159418963"
  },
  {
    "ProviderName": "LESLIE SISCO",
    "AddressLine1": "5641 WASHINGTON AVE",
    "City": "PHILADELPHIA",
    "State": "PA",
    "ZipCode": "19143",
    "ZipExtention": "2813",
    "Latitude": "39.947063",
    "Longitude": "-75.236864",
    "PhoneNumber": "2674016678"
  },
  {
    "ProviderName": "NORRIS COMMUNITY ALLIANCE SQUARE",
    "AddressLine1": "3070 FRANKFORD AVE",
    "City": "PHILADELPHIA",
    "State": "PA",
    "ZipCode": "19134",
    "ZipExtention": "",
    "Latitude": "39.991533",
    "Longitude": "-75.113488",
    "PhoneNumber": "2152914143"
  },
  {
    "ProviderName": "LITTLE STARS OF FAITH",
    "AddressLine1": "6337 WOODLAND AVE",
    "City": "PHILADELPHIA",
    "State": "PA",
    "ZipCode": "19142",
    "ZipExtention": "2036",
    "Latitude": "39.926805",
    "Longitude": "-75.232736",
    "PhoneNumber": "2157274150"
  },
  {
    "ProviderName": "ROSLYNS ROMPER ROOM INC",
    "AddressLine1": "5110 MARKET ST",
    "City": "PHILADELPHIA",
    "State": "PA",
    "ZipCode": "19139",
    "ZipExtention": "3766",
    "Latitude": "39.959653",
    "Longitude": "-75.223002",
    "PhoneNumber": "2158830739"
  },
  {
    "ProviderName": "BEGINNINGS LEARNING CENTER",
    "AddressLine1": "620 S 10TH ST",
    "City": "PHILADELPHIA",
    "State": "PA",
    "ZipCode": "19147",
    "ZipExtention": "1918",
    "Latitude": "39.94216",
    "Longitude": "-75.158838",
    "PhoneNumber": "2156273668"
  },
  {
    "ProviderName": "UNITED COMMUNITIES D NEWLIN FELL",
    "AddressLine1": "900 W OREGON AVE",
    "City": "PHILADELPHIA",
    "State": "PA",
    "ZipCode": "19148",
    "ZipExtention": "4504",
    "Latitude": "39.915666",
    "Longitude": "-75.162876",
    "PhoneNumber": "2154686111"
  },
  {
    "ProviderName": "LOIS LEARNING TREE",
    "AddressLine1": "430 S 52ND ST",
    "City": "PHILADELPHIA",
    "State": "PA",
    "ZipCode": "19143",
    "ZipExtention": "1533",
    "Latitude": "39.952626",
    "Longitude": "-75.226509",
    "PhoneNumber": "7049759185"
  },
  {
    "ProviderName": "CHRIST LIKE SERVICES FAMILY CHILD CARE HOME",
    "AddressLine1": "4446 N 15TH ST",
    "City": "PHILADELPHIA",
    "State": "PA",
    "ZipCode": "19140",
    "ZipExtention": "1920",
    "Latitude": "40.021466",
    "Longitude": "-75.150351",
    "PhoneNumber": "2154556999"
  },
  {
    "ProviderName": "JOAN SUCKI FAMILY CHILD CARE HOME",
    "AddressLine1": "1503 N 62ND ST",
    "City": "PHILADELPHIA",
    "State": "PA",
    "ZipCode": "19151",
    "ZipExtention": "4213",
    "Latitude": "39.974119",
    "Longitude": "-75.24318",
    "PhoneNumber": "2154772370"
  },
  {
    "ProviderName": "KIDZ VILLAGE LLC",
    "AddressLine1": "5930 OLD YORK RD",
    "City": "PHILADELPHIA",
    "State": "PA",
    "ZipCode": "19141",
    "ZipExtention": "1822",
    "Latitude": "40.043871",
    "Longitude": "-75.144497",
    "PhoneNumber": "2673689024"
  },
  {
    "ProviderName": "LITTLE FRIENDS CHILD CARE",
    "AddressLine1": "1727 NEDRO AVE",
    "City": "PHILADELPHIA",
    "State": "PA",
    "ZipCode": "19141",
    "ZipExtention": "1337",
    "Latitude": "40.043704",
    "Longitude": "-75.149677",
    "PhoneNumber": "2152763014"
  },
  {
    "ProviderName": "VERY IMPORTANT LITTLE PEOPLE",
    "AddressLine1": "2540 W HAGERT ST # 42",
    "City": "PHILADELPHIA",
    "State": "PA",
    "ZipCode": "19132",
    "ZipExtention": "4231",
    "Latitude": "39.99252",
    "Longitude": "-75.174608",
    "PhoneNumber": "2152239144"
  },
  {
    "ProviderName": "SYLVIA MCLEE FCCH",
    "AddressLine1": "1718 SAINT PAULS ST",
    "City": "PHILADELPHIA",
    "State": "PA",
    "ZipCode": "19140",
    "ZipExtention": "1816",
    "Latitude": "40.019473",
    "Longitude": "-75.154463",
    "PhoneNumber": "2672977707"
  },
  {
    "ProviderName": "BOYS GIRLS CLUBS OF PHILA-JAMES SULLIVAN ELEM",
    "AddressLine1": "5300 DITMAN ST",
    "City": "PHILADELPHIA",
    "State": "PA",
    "ZipCode": "19124",
    "ZipExtention": "2040",
    "Latitude": "40.015075",
    "Longitude": "-75.067878",
    "PhoneNumber": "2672582442"
  },
  {
    "ProviderName": "EDUCATIONWORKS AT ROBERT MORRIS SCHOOL",
    "AddressLine1": "2600 W THOMPSON ST",
    "City": "PHILADELPHIA",
    "State": "PA",
    "ZipCode": "19121",
    "ZipExtention": "4630",
    "Latitude": "39.975656",
    "Longitude": "-75.178507",
    "PhoneNumber": "2152216900"
  },
  {
    "ProviderName": "EDUCATIONWORKS AT EDWARD GIDEON",
    "AddressLine1": "2801 W GLENWOOD AVE",
    "City": "PHILADELPHIA",
    "State": "PA",
    "ZipCode": "19121",
    "ZipExtention": "1810",
    "Latitude": "39.984353",
    "Longitude": "-75.180264",
    "PhoneNumber": "2679921242"
  },
  {
    "ProviderName": "ZION LUTHERAN CHURCH CHILD CARE",
    "AddressLine1": "5307 N FRONT ST",
    "City": "PHILADELPHIA",
    "State": "PA",
    "ZipCode": "19120",
    "ZipExtention": "3227",
    "Latitude": "40.031106",
    "Longitude": "-75.122208",
    "PhoneNumber": "2153241014"
  },
  {
    "ProviderName": "FISHTOWN MONTESSORI SCHOOL",
    "AddressLine1": "307 E GIRARD AVE",
    "City": "PHILADELPHIA",
    "State": "PA",
    "ZipCode": "19125",
    "ZipExtention": "3918",
    "Latitude": "39.969861",
    "Longitude": "-75.131522",
    "PhoneNumber": "2158211455"
  },
  {
    "ProviderName": "MAGNA PREP INC",
    "AddressLine1": "1201 OAK LANE AVE",
    "City": "PHILADELPHIA",
    "State": "PA",
    "ZipCode": "19126",
    "ZipExtention": "",
    "Latitude": "40.054864",
    "Longitude": "-75.138215",
    "PhoneNumber": "2153170208"
  },
  {
    "ProviderName": "LITTLE PEOPLES ACADEMY",
    "AddressLine1": "104 W LOGAN ST",
    "City": "PHILADELPHIA",
    "State": "PA",
    "ZipCode": "19144",
    "ZipExtention": "3620",
    "Latitude": "40.026679",
    "Longitude": "-75.163835",
    "PhoneNumber": "2158444373"
  },
  {
    "ProviderName": "RHONDA PERRY-WAITES FCCH",
    "AddressLine1": "129 N 51ST ST",
    "City": "PHILADELPHIA",
    "State": "PA",
    "ZipCode": "19139",
    "ZipExtention": "2702",
    "Latitude": "39.96182",
    "Longitude": "-75.22235",
    "PhoneNumber": "2672308111"
  },
  {
    "ProviderName": "CURIOUS TOTS LEARNING CENTER",
    "AddressLine1": "2995 WELSH RD",
    "City": "PHILADELPHIA",
    "State": "PA",
    "ZipCode": "19152",
    "ZipExtention": "1663",
    "Latitude": "40.056999",
    "Longitude": "-75.028711",
    "PhoneNumber": "2672314260"
  },
  {
    "ProviderName": "DONNA D HASSETTE FAMILY CHILD CARE HOME",
    "AddressLine1": "6833 N GRATZ ST",
    "City": "PHILADELPHIA",
    "State": "PA",
    "ZipCode": "19126",
    "ZipExtention": "2615",
    "Latitude": "40.058245",
    "Longitude": "-75.147881",
    "PhoneNumber": "2159922533"
  },
  {
    "ProviderName": "GOMPERS SAMUEL SCHOOL",
    "AddressLine1": "5701 WYNNEFIELD AVE",
    "City": "PHILADELPHIA",
    "State": "PA",
    "ZipCode": "19131",
    "ZipExtention": "1237",
    "Latitude": "39.99204",
    "Longitude": "-75.237651",
    "PhoneNumber": "2158771925"
  },
  {
    "ProviderName": "MEMORABLE MOMENTS",
    "AddressLine1": "311 S 56TH ST",
    "City": "PHILADELPHIA",
    "State": "PA",
    "ZipCode": "19143",
    "ZipExtention": "1301",
    "Latitude": "39.955317",
    "Longitude": "-75.233927",
    "PhoneNumber": "2154764882"
  },
  {
    "ProviderName": "PERSONAL TOUCH CHILDCARE SERVICES",
    "AddressLine1": "4801 N BROAD ST",
    "City": "PHILADELPHIA",
    "State": "PA",
    "ZipCode": "19141",
    "ZipExtention": "2107",
    "Latitude": "40.026161",
    "Longitude": "-75.147426",
    "PhoneNumber": "2154555437"
  },
  {
    "ProviderName": "KINDER ACADEMY INC 1",
    "AddressLine1": "3001 BYBERRY RD",
    "City": "PHILADELPHIA",
    "State": "PA",
    "ZipCode": "19154",
    "ZipExtention": "1843",
    "Latitude": "40.102417",
    "Longitude": "-74.981826",
    "PhoneNumber": "2157287700"
  },
  {
    "ProviderName": "BERNADETTE BURTON FAMILY CHILD CARE HOME",
    "AddressLine1": "313 W MENTOR ST",
    "City": "PHILADELPHIA",
    "State": "PA",
    "ZipCode": "19120",
    "ZipExtention": "4116",
    "Latitude": "40.023026",
    "Longitude": "-75.131212",
    "PhoneNumber": "2153243173"
  },
  {
    "ProviderName": "ANNIE COPELAND",
    "AddressLine1": "5209 SANSOM ST",
    "City": "PHILADELPHIA",
    "State": "PA",
    "ZipCode": "19139",
    "ZipExtention": "3421",
    "Latitude": "39.95779",
    "Longitude": "-75.225424",
    "PhoneNumber": "2154747948"
  },
  {
    "ProviderName": "ENCHANTED CHILD DEVELOPMENT 2",
    "AddressLine1": "13250 TREVOSE RD",
    "City": "PHILADELPHIA",
    "State": "PA",
    "ZipCode": "19116",
    "ZipExtention": "1722",
    "Latitude": "40.126321",
    "Longitude": "-75.012625",
    "PhoneNumber": "2158016766"
  },
  {
    "ProviderName": "JEFFERSON CHILD CARE CENTER",
    "AddressLine1": "912 WALNUT ST # 28",
    "City": "PHILADELPHIA",
    "State": "PA",
    "ZipCode": "19107",
    "ZipExtention": "5564",
    "Latitude": "39.948355",
    "Longitude": "-75.157194",
    "PhoneNumber": "2159556556"
  },
  {
    "ProviderName": "CHRIS JAZZ CHRISTIAN ACADEMY",
    "AddressLine1": "3014 N 24TH ST",
    "City": "PHILADELPHIA",
    "State": "PA",
    "ZipCode": "19132",
    "ZipExtention": "1307",
    "Latitude": "40.001106",
    "Longitude": "-75.169736",
    "PhoneNumber": "2156296456"
  },
  {
    "ProviderName": "FOX CHASE SCHOOL",
    "AddressLine1": "500 RHAWN ST",
    "City": "PHILADELPHIA",
    "State": "PA",
    "ZipCode": "19111",
    "ZipExtention": "2505",
    "Latitude": "40.076485",
    "Longitude": "-75.082401",
    "PhoneNumber": "2157285016"
  },
  {
    "ProviderName": "ADD B ANDERSON SCHOOL",
    "AddressLine1": "1034 S 60TH ST",
    "City": "PHILADELPHIA",
    "State": "PA",
    "ZipCode": "19143",
    "ZipExtention": "2343",
    "Latitude": "39.946992",
    "Longitude": "-75.243947",
    "PhoneNumber": "2154712903"
  },
  {
    "ProviderName": "WEBSTER COMP EARLY LRNG",
    "AddressLine1": "3400 FRANKFORD AVE",
    "City": "PHILADELPHIA",
    "State": "PA",
    "ZipCode": "19134",
    "ZipExtention": "2651",
    "Latitude": "39.995522",
    "Longitude": "-75.105523",
    "PhoneNumber": "2153517200"
  },
  {
    "ProviderName": "BARBARA ALLISON FAMILY CHILD CARE HOME",
    "AddressLine1": "6010 CEDARHURST ST",
    "City": "PHILADELPHIA",
    "State": "PA",
    "ZipCode": "19143",
    "ZipExtention": "3105",
    "Latitude": "39.943797",
    "Longitude": "-75.243538",
    "PhoneNumber": "2157473498"
  },
  {
    "ProviderName": "CHILDRENS DEN",
    "AddressLine1": "5217 W THOMPSON ST",
    "City": "PHILADELPHIA",
    "State": "PA",
    "ZipCode": "19131",
    "ZipExtention": "4327",
    "Latitude": "39.972962",
    "Longitude": "-75.226618",
    "PhoneNumber": "2154733282"
  },
  {
    "ProviderName": "BIG STEPS WITH LITTLE FEET LEARNING CENTER INC",
    "AddressLine1": "2344 W ALLEGHENY AVE",
    "City": "PHILADELPHIA",
    "State": "PA",
    "ZipCode": "19132",
    "ZipExtention": "1443",
    "Latitude": "40.003593",
    "Longitude": "-75.168974",
    "PhoneNumber": "2152216218"
  },
  {
    "ProviderName": "MONUMENTAL BAPTIST CHURCH",
    "AddressLine1": "4948 LOCUST ST",
    "City": "PHILADELPHIA",
    "State": "PA",
    "ZipCode": "19139",
    "ZipExtention": "4207",
    "Latitude": "39.955148",
    "Longitude": "-75.221095",
    "PhoneNumber": "2157472792"
  },
  {
    "ProviderName": "CHURCH OF THE REDEEMER CENTER",
    "AddressLine1": "2411 DICKINSON ST",
    "City": "PHILADELPHIA",
    "State": "PA",
    "ZipCode": "19146",
    "ZipExtention": "",
    "Latitude": "39.933899",
    "Longitude": "-75.184793",
    "PhoneNumber": "2154672044"
  },
  {
    "ProviderName": "JUANITA JONES FCCH",
    "AddressLine1": "5632 LEBANON AVE",
    "City": "PHILADELPHIA",
    "State": "PA",
    "ZipCode": "19131",
    "ZipExtention": "3127",
    "Latitude": "39.986674",
    "Longitude": "-75.235725",
    "PhoneNumber": "2673577865"
  },
  {
    "ProviderName": "GT DAY CARE",
    "AddressLine1": "10210 JEANES ST",
    "City": "PHILADELPHIA",
    "State": "PA",
    "ZipCode": "19116",
    "ZipExtention": "3620",
    "Latitude": "40.110558",
    "Longitude": "-75.030107",
    "PhoneNumber": "2154644721"
  },
  {
    "ProviderName": "FRANKLIN DAY NURSERY",
    "AddressLine1": "719 JACKSON ST",
    "City": "PHILADELPHIA",
    "State": "PA",
    "ZipCode": "19148",
    "ZipExtention": "3249",
    "Latitude": "39.921779",
    "Longitude": "-75.158948",
    "PhoneNumber": "2155727500"
  },
  {
    "ProviderName": "ANN KIDS CORP",
    "AddressLine1": "10100 JAMISON AVE",
    "City": "PHILADELPHIA",
    "State": "PA",
    "ZipCode": "19116",
    "ZipExtention": "3832",
    "Latitude": "40.101105",
    "Longitude": "-75.020605",
    "PhoneNumber": "2158696864"
  },
  {
    "ProviderName": "ACELERO LEARNING CAMDEN PHILADELPHIA",
    "AddressLine1": "2514 GERMANTOWN AVE",
    "City": "PHILADELPHIA",
    "State": "PA",
    "ZipCode": "19133",
    "ZipExtention": "1635",
    "Latitude": "39.990262",
    "Longitude": "-75.147903",
    "PhoneNumber": "2679098434"
  },
  {
    "ProviderName": "THE JOSHUA TREE LEARNING EXPERIENCE",
    "AddressLine1": "766 S 9TH ST",
    "City": "PHILADELPHIA",
    "State": "PA",
    "ZipCode": "19147",
    "ZipExtention": "2837",
    "Latitude": "39.939861",
    "Longitude": "-75.157742",
    "PhoneNumber": "2159223460"
  },
  {
    "ProviderName": "M & R ACADEMIC ACADEMY LLC",
    "AddressLine1": "6167 N 17TH ST",
    "City": "PHILADELPHIA",
    "State": "PA",
    "ZipCode": "19141",
    "ZipExtention": "1955",
    "Latitude": "40.047827",
    "Longitude": "-75.14764",
    "PhoneNumber": "2154604765"
  },
  {
    "ProviderName": "WARING SCHOOL",
    "AddressLine1": "1801 GREEN ST",
    "City": "PHILADELPHIA",
    "State": "PA",
    "ZipCode": "19130",
    "ZipExtention": "3903",
    "Latitude": "39.964639",
    "Longitude": "-75.167536",
    "PhoneNumber": "2154006063"
  },
  {
    "ProviderName": "WILLIAM LEVERING SCHOOL",
    "AddressLine1": "6000 RIDGE AVE",
    "City": "PHILADELPHIA",
    "State": "PA",
    "ZipCode": "19128",
    "ZipExtention": "1643",
    "Latitude": "40.031588",
    "Longitude": "-75.213177",
    "PhoneNumber": "2154874462"
  },
  {
    "ProviderName": "MCDANIEL ANNEX",
    "AddressLine1": "1301 S 26TH ST",
    "City": "PHILADELPHIA",
    "State": "PA",
    "ZipCode": "19146",
    "ZipExtention": "3800",
    "Latitude": "39.93658",
    "Longitude": "-75.187229",
    "PhoneNumber": "2159526584"
  },
  {
    "ProviderName": "HAVERFORD CENTER",
    "AddressLine1": "4601 HAVERFORD AVENUE",
    "City": "PHILADELPHIA",
    "State": "PA",
    "ZipCode": "19139",
    "ZipExtention": "",
    "Latitude": "39.962651",
    "Longitude": "-75.213074",
    "PhoneNumber": "2155813414"
  },
  {
    "ProviderName": "ETHEL ALLEN COMP DAY CARE",
    "AddressLine1": "3200 LEHIGH AVE",
    "City": "PHILADELPHIA",
    "State": "PA",
    "ZipCode": "19132",
    "ZipExtention": "",
    "Latitude": "39.997614",
    "Longitude": "-75.183437",
    "PhoneNumber": "2152278636"
  },
  {
    "ProviderName": "WOODLAND ACADEMY CHILD DEVELOPMENT CENTER",
    "AddressLine1": "5401 GRAYS AVE",
    "City": "PHILADELPHIA",
    "State": "PA",
    "ZipCode": "19143",
    "ZipExtention": "5822",
    "Latitude": "39.934162",
    "Longitude": "-75.216458",
    "PhoneNumber": "2157266646"
  },
  {
    "ProviderName": "OVERBROOK ELEMENTARY SCHOOL",
    "AddressLine1": "6201 LEBANON AVE",
    "City": "PHILADELPHIA",
    "State": "PA",
    "ZipCode": "19151",
    "ZipExtention": "",
    "Latitude": "39.981776",
    "Longitude": "-75.245114",
    "PhoneNumber": "2158797740"
  },
  {
    "ProviderName": "KATZ KIDZ DEN ROMPER ROOM",
    "AddressLine1": "7602 WOODBINE AVE",
    "City": "PHILADELPHIA",
    "State": "PA",
    "ZipCode": "19151",
    "ZipExtention": "2721",
    "Latitude": "39.974533",
    "Longitude": "-75.267665",
    "PhoneNumber": "2154594340"
  },
  {
    "ProviderName": "JANELLE CARROLL FCCH",
    "AddressLine1": "534 E TULPEHOCKEN ST",
    "City": "PHILADELPHIA",
    "State": "PA",
    "ZipCode": "19144",
    "ZipExtention": "1039",
    "Latitude": "40.048847",
    "Longitude": "-75.172412",
    "PhoneNumber": "2672518158"
  },
  {
    "ProviderName": "THE SALVATION ARMY LEARNING ZONE",
    "AddressLine1": "1340 BROWN ST",
    "City": "PHILADELPHIA",
    "State": "PA",
    "ZipCode": "19123",
    "ZipExtention": "1834",
    "Latitude": "39.967853",
    "Longitude": "-75.159402",
    "PhoneNumber": "2158254636"
  },
  {
    "ProviderName": "FRIENDS AND FAMILY ELC",
    "AddressLine1": "1713 HARRISON ST",
    "City": "PHILADELPHIA",
    "State": "PA",
    "ZipCode": "19124",
    "ZipExtention": "2723",
    "Latitude": "40.017429",
    "Longitude": "-75.078091",
    "PhoneNumber": "2157445469"
  },
  {
    "ProviderName": "FSC LEARNING CENTER",
    "AddressLine1": "2059 E CHELTEN AVE",
    "City": "PHILADELPHIA",
    "State": "PA",
    "ZipCode": "19138",
    "ZipExtention": "3043",
    "Latitude": "40.051846",
    "Longitude": "-75.154023",
    "PhoneNumber": "2673355857"
  },
  {
    "ProviderName": "MOONSTONE PRESCHOOL",
    "AddressLine1": "750 S 11TH ST",
    "City": "PHILADELPHIA",
    "State": "PA",
    "ZipCode": "19147",
    "ZipExtention": "2614",
    "Latitude": "39.940621",
    "Longitude": "-75.160793",
    "PhoneNumber": "2155749157"
  },
  {
    "ProviderName": "BRIGHTSIDE ACADEMY EARLY CARE EDUCATION",
    "AddressLine1": "217 W LEHIGH AVE # 31",
    "City": "PHILADELPHIA",
    "State": "PA",
    "ZipCode": "19133",
    "ZipExtention": "3454",
    "Latitude": "39.991544",
    "Longitude": "-75.135526",
    "PhoneNumber": "4122015501"
  },
  {
    "ProviderName": "LENES DAILY CHILD CARE IV",
    "AddressLine1": "28 N 52ND ST",
    "City": "PHILADELPHIA",
    "State": "PA",
    "ZipCode": "19139",
    "ZipExtention": "2643",
    "Latitude": "39.960775",
    "Longitude": "-75.224794",
    "PhoneNumber": "2159214312"
  },
  {
    "ProviderName": "UNIVERSAL INST",
    "AddressLine1": "1415 CATHARINE ST",
    "City": "PHILADELPHIA",
    "State": "PA",
    "ZipCode": "19146",
    "ZipExtention": "",
    "Latitude": "39.940982",
    "Longitude": "-75.166985",
    "PhoneNumber": "2643141331"
  },
  {
    "ProviderName": "MONUMENTAL BAPTIST",
    "AddressLine1": "4948 LOCUST ST",
    "City": "PHILADELPHIA",
    "State": "PA",
    "ZipCode": "19139",
    "ZipExtention": "",
    "Latitude": "39.955215",
    "Longitude": "-75.2217",
    "PhoneNumber": "2157792581"
  },
  {
    "ProviderName": "TABERNACLE LUTHERAN",
    "AddressLine1": "5843 SPRUCE ST",
    "City": "PHILADELPHIA",
    "State": "PA",
    "ZipCode": "19139",
    "ZipExtention": "",
    "Latitude": "39.956231",
    "Longitude": "-75.23875",
    "PhoneNumber": "2157792581"
  },
  {
    "ProviderName": "ELWYN",
    "AddressLine1": "2001 W LEHIGH AVE",
    "City": "PHILADELPHIA",
    "State": "PA",
    "ZipCode": "19132",
    "ZipExtention": "2652",
    "Latitude": "39.995344",
    "Longitude": "-75.16478",
    "PhoneNumber": "2153831552"
  },
  {
    "ProviderName": "NICOLE FAMILY DAY CARE TOO",
    "AddressLine1": "6354 CARDIFF ST",
    "City": "PHILADELPHIA",
    "State": "PA",
    "ZipCode": "19149",
    "ZipExtention": "3034",
    "Latitude": "40.032184",
    "Longitude": "-75.064528",
    "PhoneNumber": "2674560845"
  },
  {
    "ProviderName": "LITTLE SCHOOL ON THE HILL",
    "AddressLine1": "3585 INDIAN QUEEN LN",
    "City": "PHILADELPHIA",
    "State": "PA",
    "ZipCode": "19129",
    "ZipExtention": "1539",
    "Latitude": "40.009752",
    "Longitude": "-75.191504",
    "PhoneNumber": "2152842472"
  },
  {
    "ProviderName": "GLORIA RACKLEY LANE GROUP DAY CARE",
    "AddressLine1": "6049 OGONTZ AVE",
    "City": "PHILADELPHIA",
    "State": "PA",
    "ZipCode": "19141",
    "ZipExtention": "1311",
    "Latitude": "40.047332",
    "Longitude": "-75.15096",
    "PhoneNumber": "2154247060"
  },
  {
    "ProviderName": "DIVINE TREASURES CHILDCARE CENTER INC",
    "AddressLine1": "7575 HAVERFORD AVE",
    "City": "PHILADELPHIA",
    "State": "PA",
    "ZipCode": "19151",
    "ZipExtention": "2228",
    "Latitude": "39.979684",
    "Longitude": "-75.268761",
    "PhoneNumber": "2152201197"
  },
  {
    "ProviderName": "BIRDS OF A FEATHER JUNIOR ACADEMY",
    "AddressLine1": "5555 CHESTNUT ST",
    "City": "PHILADELPHIA",
    "State": "PA",
    "ZipCode": "19139",
    "ZipExtention": "3205",
    "Latitude": "39.959518",
    "Longitude": "-75.232941",
    "PhoneNumber": "2159214441"
  },
  {
    "ProviderName": "EDUCATIONWORKS AT JOHN F HARTRANFT SCHOOL",
    "AddressLine1": "720 W CUMBERLAND ST",
    "City": "PHILADELPHIA",
    "State": "PA",
    "ZipCode": "19133",
    "ZipExtention": "2226",
    "Latitude": "39.989479",
    "Longitude": "-75.14519",
    "PhoneNumber": "2152216900"
  },
  {
    "ProviderName": "EDUCATION WORKS AT JOHN H TAGGART SCHOOL",
    "AddressLine1": "400 W PORTER ST",
    "City": "PHILADELPHIA",
    "State": "PA",
    "ZipCode": "19148",
    "ZipExtention": "3921",
    "Latitude": "39.917234",
    "Longitude": "-75.154582",
    "PhoneNumber": "2152216900"
  },
  {
    "ProviderName": "CHRISTIAN WATCH HOUSE OF PRAYER-MWO COOPERATIVE",
    "AddressLine1": "8418 MICHENER AVE",
    "City": "PHILADELPHIA",
    "State": "PA",
    "ZipCode": "19150",
    "ZipExtention": "1612",
    "Latitude": "40.079198",
    "Longitude": "-75.17469",
    "PhoneNumber": "2152423956"
  },
  {
    "ProviderName": "OUR HOUSE MONTESSORI LLC",
    "AddressLine1": "1733 SPRING GARDEN ST",
    "City": "PHILADELPHIA",
    "State": "PA",
    "ZipCode": "19130",
    "ZipExtention": "4165",
    "Latitude": "39.963346",
    "Longitude": "-75.167706",
    "PhoneNumber": "2157013937"
  },
  {
    "ProviderName": "EARLY CHILDHOOD ENVIRONMENTS LLC",
    "AddressLine1": "762 S BROAD ST",
    "City": "PHILADELPHIA",
    "State": "PA",
    "ZipCode": "19146",
    "ZipExtention": "2232",
    "Latitude": "39.940946",
    "Longitude": "-75.166165",
    "PhoneNumber": "2158440178"
  },
  {
    "ProviderName": "FIRST STEPS TO SUCCESS LEARNING CENTER",
    "AddressLine1": "1018 W LEHIGH AVE",
    "City": "PHILADELPHIA",
    "State": "PA",
    "ZipCode": "19133",
    "ZipExtention": "1640",
    "Latitude": "39.993116",
    "Longitude": "-75.148774",
    "PhoneNumber": "2152292053"
  },
  {
    "ProviderName": "DEBBIES LITTLE ANGELS SOARING ABOVE THE CROWD",
    "AddressLine1": "5717 WALTON AVE",
    "City": "PHILADELPHIA",
    "State": "PA",
    "ZipCode": "19143",
    "ZipExtention": "2427",
    "Latitude": "39.950792",
    "Longitude": "-75.237276",
    "PhoneNumber": "2154726796"
  }
]